*******************************************************************************
JPL/HORIZONS               2774 Tenojoki (1942 TJ)         2023-Sep-04 11:19:51
Rec #:    2774 (+COV) Soln.date: 2023-Aug-23_01:59:15   # obs: 3992 (1942-2023)
 
IAU76/J2000 helio. ecliptic osc. elements (au, days, deg., period=Julian yrs):
 
  EPOCH=  2457845.5 ! 2017-Apr-02.00 (TDB)         Residual RMS= .24077
   EC= .1413369695809741   QR= 2.73446108559001    TP= 2457765.794049433
   OM= 290.9424747373175   W=  108.4372639756319   IN= 8.525967410195694
   A= 3.184556675574583    MA= 13.82360595853675   ADIST= 3.634652265559156
   PER= 5.68305            N= .173432546           ANGMOM= .030389549
   DAN= 3.26698            DDN= 2.9874             L= 39.5716235
   B= 8.0853245            MOID= 1.75660002        TP= 2017-Jan-12.2940494330
 
Asteroid physical parameters (km, seconds, rotational period in hours):
   GM= n.a.                RAD= 17.8485            ROTPER= 11.2
   H= 11.46                G= .150                 B-V= n.a.
                           ALBEDO= .033            STYP= n.a.

ASTEROID comments: 
1: soln ref.= JPL#51, OCC=0
2: source=ORB
*******************************************************************************


*******************************************************************************
Ephemeris / API_USER Mon Sep  4 11:19:51 2023 Pasadena, USA      / Horizons
*******************************************************************************
Target body name: 2774 Tenojoki (1942 TJ)         {source: JPL#51}
Center body name: Solar System Barycenter (0)     {source: DE441}
Center-site name: BODY CENTER
*******************************************************************************
Start time      : A.D. 2023-Aug-12 00:00:00.0000 TDB
Stop  time      : A.D. 2023-Aug-13 00:00:00.0000 TDB
Step-size       : 2880 minutes
*******************************************************************************
Center geodetic : 0.0, 0.0, 0.0                   {E-lon(deg),Lat(deg),Alt(km)}
Center cylindric: 0.0, 0.0, 0.0                   {E-lon(deg),Dxy(km),Dz(km)}
Center radii    : (undefined)
Small perturbers: Yes                             {source: SB441-N16}
Output units    : KM-S
Calendar mode   : Mixed Julian/Gregorian
Output type     : GEOMETRIC cartesian states
Output format   : 2 (position and velocity)
Reference frame : Ecliptic of J2000.0
*******************************************************************************
Initial IAU76/J2000 heliocentric ecliptic osculating elements (au, days, deg.):
  EPOCH=  2457845.5 ! 2017-Apr-02.00 (TDB)         Residual RMS= .24077        
   EC= .1413369695809741   QR= 2.73446108559001    TP= 2457765.794049433       
   OM= 290.9424747373175   W=  108.4372639756319   IN= 8.525967410195694       
  Equivalent ICRF heliocentric cartesian coordinates (au, au/d):
   X= 1.441305628258635E+00  Y= 2.000293396375602E+00  Z= 1.222772099996828E+00
  VX=-9.053463717799182E-03 VY= 6.121931749378835E-03 VZ= 1.638698573192774E-03
Asteroid physical parameters (km, seconds, rotational period in hours):        
   GM= n.a.                RAD= 17.8485            ROTPER= 11.2                
   H= 11.46                G= .150                 B-V= n.a.                   
                           ALBEDO= .033            STYP= n.a.                  
*******************************************************************************
JDTDB
   X     Y     Z
   VX    VY    VZ
*******************************************************************************
$$SOE
2460168.500000000 = A.D. 2023-Aug-12 00:00:00.0000 TDB 
 X =-1.553750006040168E+08 Y = 4.215145274350762E+08 Z = 8.525673882075250E+05
 VX=-1.704756295553498E+01 VY=-3.907710549011662E+00 VZ=-2.590542774225368E+00
$$EOE
*******************************************************************************
 
TIME

  Barycentric Dynamical Time ("TDB" or T_eph) output was requested. This
continuous coordinate time is equivalent to the relativistic proper time
of a clock at rest in a reference frame co-moving with the solar system
barycenter but outside the system's gravity well. It is the independent
variable in the solar system relativistic equations of motion.

  TDB runs at a uniform rate of one SI second per second and is independent
of irregularities in Earth's rotation.
 
CALENDAR SYSTEM

  Mixed calendar mode was active such that calendar dates after AD 1582-Oct-15
(if any) are in the modern Gregorian system. Dates prior to 1582-Oct-5 (if any)
are in the Julian calendar system, which is automatically extended for dates
prior to its adoption on 45-Jan-1 BC.  The Julian calendar is useful for
matching historical dates. The Gregorian calendar more accurately corresponds
to the Earth's orbital motion and seasons. A "Gregorian-only" calendar mode is
available if such physical events are the primary interest.

REFERENCE FRAME AND COORDINATES

  Ecliptic at the standard reference epoch

    Reference epoch: J2000.0
    X-Y plane: adopted Earth orbital plane at the reference epoch
               Note: IAU76 obliquity of 84381.448 arcseconds wrt ICRF X-Y plane
    X-axis   : ICRF
    Z-axis   : perpendicular to the X-Y plane in the directional (+ or -) sense
               of Earth's north pole at the reference epoch.

  Symbol meaning:

    JDTDB    Julian Day Number, Barycentric Dynamical Time
      X      X-component of position vector (km)
      Y      Y-component of position vector (km)
      Z      Z-component of position vector (km)
      VX     X-component of velocity vector (km/sec)                           
      VY     Y-component of velocity vector (km/sec)                           
      VZ     Z-component of velocity vector (km/sec)                           

ABERRATIONS AND CORRECTIONS

 Geometric state vectors have NO corrections or aberrations applied.

Computations by ...

    Solar System Dynamics Group, Horizons On-Line Ephemeris System
    4800 Oak Grove Drive, Jet Propulsion Laboratory
    Pasadena, CA  91109   USA

    General site: https://ssd.jpl.nasa.gov/
    Mailing list: https://ssd.jpl.nasa.gov/email_list.html
    System news : https://ssd.jpl.nasa.gov/horizons/news.html
    User Guide  : https://ssd.jpl.nasa.gov/horizons/manual.html
    Connect     : browser        https://ssd.jpl.nasa.gov/horizons/app.html#/x
                  API            https://ssd-api.jpl.nasa.gov/doc/horizons.html
                  command-line   telnet ssd.jpl.nasa.gov 6775
                  e-mail/batch   https://ssd.jpl.nasa.gov/ftp/ssd/hrzn_batch.txt
                  scripts        https://ssd.jpl.nasa.gov/ftp/ssd/SCRIPTS
    Author      : Jon.D.Giorgini@jpl.nasa.gov
*******************************************************************************
